SOYUZ-MS 28             
1 66664U 25275A   25364.53284235  .00016289  00000+0  30357-3 0  9997
2 66664  51.6331  54.3560 0007484 320.1003  39.9435 15.48944140545618
1998-067XS              
1 66906U 98067XS  25364.44749564  .00036369  00000+0  60697-3 0  9997
2 66906  51.6323  54.5369 0002565 295.8331  64.2394 15.51595401  4367
1998-067XT              
1 66907U 98067XT  25364.55618206  .00097262  00000+0  14715-2 0  9996
2 66907  51.6317  53.7632 0003807 336.7480  23.3337 15.53880372  4386
1998-067XU              
1 66908U 98067XU  25364.42639183  .00080914  00000+0  12306-2 0  9990
2 66908  51.6312  54.3958 0003908 332.0824  27.9957 15.53819145  4369
SILVERSAT               
1 66909U 98067XV  25364.74510061  .00104918  00000+0  15595-2 0  9993
2 66909  51.6313  52.7744 0003945 342.2400  17.8453 15.54329536  4416
1998-067XW              
1 66910U 98067XW  25364.42238299  .00090574  00000+0  13614-2 0  9992
2 66910  51.6315  54.3693 0003509 309.8270  50.2412 15.54093584  4362
1998-067XX              
1 66911U 98067XX  25364.67358095  .00115440  00000+0  16798-2 0  9993
2 66911  51.6319  53.0470 0003182 324.6408  35.4372 15.54865129  4396
1998-067XY              
1 66912U 98067XY  25364.43478717  .00069518  00000+0  10911-2 0  9997
2 66912  51.6321  54.4530 0003756 324.0903  35.9835 15.53016148  4356
