CCSDS_OMM_VERS = 2.0
CREATION_DATE  = 
ORIGINATOR     = 

OBJECT_NAME    = SOYUZ-MS 28
OBJECT_ID      = 2025-275A
CENTER_NAME    = EARTH
REF_FRAME      = TEME
TIME_SYSTEM    = UTC
MEAN_ELEMENT_THEORY = SGP/SGP4

EPOCH          = 2025-12-30T12:47:17.579040
MEAN_MOTION    = 15.48944140
ECCENTRICITY   = .0007484
INCLINATION    = 51.6331
RA_OF_ASC_NODE = 54.3560
ARG_OF_PERICENTER = 320.1003
MEAN_ANOMALY   = 39.9435

EPHEMERIS_TYPE = 0
CLASSIFICATION_TYPE = U
NORAD_CAT_ID   = 66664
ELEMENT_SET_NO = 999
REV_AT_EPOCH   = 54561
BSTAR          = .30357E-3
MEAN_MOTION_DOT = .16289E-3
MEAN_MOTION_DDOT = 0

CCSDS_OMM_VERS = 2.0
CREATION_DATE  = 
ORIGINATOR     = 

OBJECT_NAME    = 1998-067XS
OBJECT_ID      = 1998-067XS
CENTER_NAME    = EARTH
REF_FRAME      = TEME
TIME_SYSTEM    = UTC
MEAN_ELEMENT_THEORY = SGP/SGP4

EPOCH          = 2025-12-30T10:44:23.623296
MEAN_MOTION    = 15.51595401
ECCENTRICITY   = .00025651
INCLINATION    = 51.6323
RA_OF_ASC_NODE = 54.5369
ARG_OF_PERICENTER = 295.8331
MEAN_ANOMALY   = 64.2394

EPHEMERIS_TYPE = 0
CLASSIFICATION_TYPE = U
NORAD_CAT_ID   = 66906
ELEMENT_SET_NO = 999
REV_AT_EPOCH   = 436
BSTAR          = .60697148E-3
MEAN_MOTION_DOT = .36369E-3
MEAN_MOTION_DDOT = 0

CCSDS_OMM_VERS = 2.0
CREATION_DATE  = 
ORIGINATOR     = 

OBJECT_NAME    = 1998-067XT
OBJECT_ID      = 1998-067XT
CENTER_NAME    = EARTH
REF_FRAME      = TEME
TIME_SYSTEM    = UTC
MEAN_ELEMENT_THEORY = SGP/SGP4

EPOCH          = 2025-12-30T13:20:54.129984
MEAN_MOTION    = 15.53880372
ECCENTRICITY   = .0003807
INCLINATION    = 51.6317
RA_OF_ASC_NODE = 53.7632
ARG_OF_PERICENTER = 336.7480
MEAN_ANOMALY   = 23.3337

EPHEMERIS_TYPE = 0
CLASSIFICATION_TYPE = U
NORAD_CAT_ID   = 66907
ELEMENT_SET_NO = 999
REV_AT_EPOCH   = 438
BSTAR          = .14715E-2
MEAN_MOTION_DOT = .97262E-3
MEAN_MOTION_DDOT = 0

CCSDS_OMM_VERS = 2.0
CREATION_DATE  = 
ORIGINATOR     = 

OBJECT_NAME    = 1998-067XU
OBJECT_ID      = 1998-067XU
CENTER_NAME    = EARTH
REF_FRAME      = TEME
TIME_SYSTEM    = UTC
MEAN_ELEMENT_THEORY = SGP/SGP4

EPOCH          = 2025-12-30T10:14:00.254112
MEAN_MOTION    = 15.53819145
ECCENTRICITY   = .00039086
INCLINATION    = 51.6312
RA_OF_ASC_NODE = 54.3958
ARG_OF_PERICENTER = 332.0824
MEAN_ANOMALY   = 27.9957

EPHEMERIS_TYPE = 0
CLASSIFICATION_TYPE = U
NORAD_CAT_ID   = 66908
ELEMENT_SET_NO = 999
REV_AT_EPOCH   = 436
BSTAR          = .12306362E-2
MEAN_MOTION_DOT = .80914E-3
MEAN_MOTION_DDOT = 0

CCSDS_OMM_VERS = 2.0
CREATION_DATE  = 
ORIGINATOR     = 

OBJECT_NAME    = SILVERSAT
OBJECT_ID      = 1998-067XV
CENTER_NAME    = EARTH
REF_FRAME      = TEME
TIME_SYSTEM    = UTC
MEAN_ELEMENT_THEORY = SGP/SGP4

EPOCH          = 2025-12-30T17:52:56.692704
MEAN_MOTION    = 15.54329536
ECCENTRICITY   = .0003945
INCLINATION    = 51.6313
RA_OF_ASC_NODE = 52.7744
ARG_OF_PERICENTER = 342.2400
MEAN_ANOMALY   = 17.8453

EPHEMERIS_TYPE = 0
CLASSIFICATION_TYPE = U
NORAD_CAT_ID   = 66909
ELEMENT_SET_NO = 999
REV_AT_EPOCH   = 441
BSTAR          = .15595E-2
MEAN_MOTION_DOT = .104918E-2
MEAN_MOTION_DDOT = 0

CCSDS_OMM_VERS = 2.0
CREATION_DATE  = 
ORIGINATOR     = 

OBJECT_NAME    = 1998-067XW
OBJECT_ID      = 1998-067XW
CENTER_NAME    = EARTH
REF_FRAME      = TEME
TIME_SYSTEM    = UTC
MEAN_ELEMENT_THEORY = SGP/SGP4

EPOCH          = 2025-12-30T10:08:13.890336
MEAN_MOTION    = 15.54093584
ECCENTRICITY   = .00035098
INCLINATION    = 51.6315
RA_OF_ASC_NODE = 54.3693
ARG_OF_PERICENTER = 309.8270
MEAN_ANOMALY   = 50.2412

EPHEMERIS_TYPE = 0
CLASSIFICATION_TYPE = U
NORAD_CAT_ID   = 66910
ELEMENT_SET_NO = 999
REV_AT_EPOCH   = 436
BSTAR          = .13614301E-2
MEAN_MOTION_DOT = .90574E-3
MEAN_MOTION_DDOT = 0

CCSDS_OMM_VERS = 2.0
CREATION_DATE  = 
ORIGINATOR     = 

OBJECT_NAME    = 1998-067XX
OBJECT_ID      = 1998-067XX
CENTER_NAME    = EARTH
REF_FRAME      = TEME
TIME_SYSTEM    = UTC
MEAN_ELEMENT_THEORY = SGP/SGP4

EPOCH          = 2025-12-30T16:09:57.394080
MEAN_MOTION    = 15.54865129
ECCENTRICITY   = .0003182
INCLINATION    = 51.6319
RA_OF_ASC_NODE = 53.0470
ARG_OF_PERICENTER = 324.6408
MEAN_ANOMALY   = 35.4372

EPHEMERIS_TYPE = 0
CLASSIFICATION_TYPE = U
NORAD_CAT_ID   = 66911
ELEMENT_SET_NO = 999
REV_AT_EPOCH   = 439
BSTAR          = .16798E-2
MEAN_MOTION_DOT = .11544E-2
MEAN_MOTION_DDOT = 0

CCSDS_OMM_VERS = 2.0
CREATION_DATE  = 
ORIGINATOR     = 

OBJECT_NAME    = 1998-067XY
OBJECT_ID      = 1998-067XY
CENTER_NAME    = EARTH
REF_FRAME      = TEME
TIME_SYSTEM    = UTC
MEAN_ELEMENT_THEORY = SGP/SGP4

EPOCH          = 2025-12-30T10:26:05.611488
MEAN_MOTION    = 15.53016148
ECCENTRICITY   = .00037563
INCLINATION    = 51.6321
RA_OF_ASC_NODE = 54.4530
ARG_OF_PERICENTER = 324.0903
MEAN_ANOMALY   = 35.9835

EPHEMERIS_TYPE = 0
CLASSIFICATION_TYPE = U
NORAD_CAT_ID   = 66912
ELEMENT_SET_NO = 999
REV_AT_EPOCH   = 435
BSTAR          = .10911297E-2
MEAN_MOTION_DOT = .69518E-3
MEAN_MOTION_DDOT = 0

